ONEWEB-0577             
1 56066U 23043W   26001.25460603  .00000078  00000+0  17005-3 0  9990
2 56066  87.9044 262.0092 0002262  83.7401 276.3987 13.16593302137021
ONEWEB-0578             
1 56067U 23043X   26001.26839448  .00000069  00000+0  13514-3 0  9990
2 56067  87.9227 277.2687 0001536  83.0806 277.0503 13.21826267136181
ONEWEB-0579             
1 56068U 23043Y   26001.25849279  .00000015  00000+0  56546-5 0  9998
2 56068  87.9230 277.2583 0001749  64.7018 295.4297 13.21823584136192
ONEWEB-0581             
1 56069U 23043Z   26001.26093974 -.00000017  00000+0 -79374-4 0  9990
2 56069  87.9043 262.0206 0001977  75.6441 284.4909 13.16593427136993
ONEWEB-0609             
1 56070U 23043AA  26001.31398308 -.00000040  00000+0 -14088-3 0  9993
2 56070  87.9006 292.5208 0001602  73.4018 286.7288 13.15548185134493
ONEWEB-0613             
1 56071U 23043AB  26001.30922517  .00000018  00000+0  13411-4 0  9991
2 56071  87.9005 292.5335 0001668  65.9550 294.1755 13.15546953134496
ONEWEB-0630             
1 56072U 23043AC  26001.30446823 -.00000005  00000+0 -47844-4 0  9998
2 56072  87.9003 292.5055 0001669  64.4031 295.7272 13.15547435134489
ONEWEB-0632             
1 56073U 23043AD  26001.29971774 -.00000110  00000+0 -32755-3 0  9996
2 56073  87.9005 292.5240 0001891  74.2700 285.8639 13.15549065134485
ONEWEB-0633             
1 56074U 23043AE  26001.29338006 -.00000091  00000+0 -27584-3 0  9994
2 56074  87.9006 292.4885 0001517  61.8593 298.2691 13.15547705134461
ONEWEB-0634             
1 56075U 23043AF  26001.27911857 -.00000086  00000+0 -26160-3 0  9997
2 56075  87.9010 292.5423 0001374  79.8469 280.2816 13.15548118134456
ONEWEB-0635             
1 56076U 23043AG  26001.27436702 -.00000080  00000+0 -24689-3 0  9997
2 56076  87.9006 292.4964 0001966  75.9932 284.1417 13.15548827134480
ONEWEB-0636             
1 56077U 23043AH  26001.26644557  .00000057  00000+0  11666-3 0  9999
2 56077  87.9004 292.5154 0001873  77.9962 282.1379 13.15548881134466
ONEWEB-0637             
1 56078U 23043AJ  26001.26009965  .00000098  00000+0  22584-3 0  9994
2 56078  87.9007 292.5337 0001737  83.1421 276.9907 13.15550251134485
ONEWEB-0647             
1 56079U 23043AK  26001.25535676  .00000192  00000+0  47672-3 0  9997
2 56079  87.9004 292.5479 0001833  70.1176 290.0152 13.15547335134477
ONEWEB-0651             
1 56080U 23043AL  26001.25060604  .00000167  00000+0  41035-3 0  9992
2 56080  87.9007 292.5419 0001869  79.8288 280.3053 13.15547350135677
ONEWEB-0718             
1 56081U 23043AM  26001.24583737  .00000140  00000+0  33853-3 0  9999
2 56081  87.9007 292.5234 0001119  82.9505 277.1753 13.15550631134483
