[{"OBJECT_NAME":"ONEWEB-0577","OBJECT_ID":"2023-043W","EPOCH":"2026-01-01T06:06:37.960992","MEAN_MOTION":13.16593302,"ECCENTRICITY":0.00022627,"INCLINATION":87.9044,"RA_OF_ASC_NODE":262.0092,"ARG_OF_PERICENTER":83.7401,"MEAN_ANOMALY":276.3987,"EPHEMERIS_TYPE":0,"CLASSIFICATION_TYPE":"U","NORAD_CAT_ID":56066,"ELEMENT_SET_NO":999,"REV_AT_EPOCH":13702,"BSTAR":0.00017005102,"MEAN_MOTION_DOT":7.8e-7,"MEAN_MOTION_DDOT":0},{"OBJECT_NAME":"ONEWEB-0578","OBJECT_ID":"2023-043X","EPOCH":"2026-01-01T06:26:29.283072","MEAN_MOTION":13.21826267,"ECCENTRICITY":0.00015366,"INCLINATION":87.9227,"RA_OF_ASC_NODE":277.2687,"ARG_OF_PERICENTER":83.0806,"MEAN_ANOMALY":277.0503,"EPHEMERIS_TYPE":0,"CLASSIFICATION_TYPE":"U","NORAD_CAT_ID":56067,"ELEMENT_SET_NO":999,"REV_AT_EPOCH":13618,"BSTAR":0.00013513576,"MEAN_MOTION_DOT":6.9e-7,"MEAN_MOTION_DDOT":0},{"OBJECT_NAME":"ONEWEB-0579","OBJECT_ID":"2023-043Y","EPOCH":"2026-01-01T06:12:13.777056","MEAN_MOTION":13.21823584,"ECCENTRICITY":0.00017491,"INCLINATION":87.923,"RA_OF_ASC_NODE":277.2583,"ARG_OF_PERICENTER":64.7018,"MEAN_ANOMALY":295.4297,"EPHEMERIS_TYPE":0,"CLASSIFICATION_TYPE":"U","NORAD_CAT_ID":56068,"ELEMENT_SET_NO":999,"REV_AT_EPOCH":13619,"BSTAR":5.654637e-6,"MEAN_MOTION_DOT":1.5e-7,"MEAN_MOTION_DDOT":0},{"OBJECT_NAME":"ONEWEB-0581","OBJECT_ID":"2023-043Z","EPOCH":"2026-01-01T06:15:45.193536","MEAN_MOTION":13.16593427,"ECCENTRICITY":0.00019776,"INCLINATION":87.9043,"RA_OF_ASC_NODE":262.0206,"ARG_OF_PERICENTER":75.6441,"MEAN_ANOMALY":284.4909,"EPHEMERIS_TYPE":0,"CLASSIFICATION_TYPE":"U","NORAD_CAT_ID":56069,"ELEMENT_SET_NO":999,"REV_AT_EPOCH":13699,"BSTAR":-7.9374132e-5,"MEAN_MOTION_DOT":-1.7e-7,"MEAN_MOTION_DDOT":0},{"OBJECT_NAME":"ONEWEB-0609","OBJECT_ID":"2023-043AA","EPOCH":"2026-01-01T07:32:08.138112","MEAN_MOTION":13.15548185,"ECCENTRICITY":0.00016028,"INCLINATION":87.9006,"RA_OF_ASC_NODE":292.5208,"ARG_OF_PERICENTER":73.4018,"MEAN_ANOMALY":286.7288,"EPHEMERIS_TYPE":0,"CLASSIFICATION_TYPE":"U","NORAD_CAT_ID":56070,"ELEMENT_SET_NO":999,"REV_AT_EPOCH":13449,"BSTAR":-0.00014088266,"MEAN_MOTION_DOT":-4.0e-7,"MEAN_MOTION_DDOT":0},{"OBJECT_NAME":"ONEWEB-0613","OBJECT_ID":"2023-043AB","EPOCH":"2026-01-01T07:25:17.054688","MEAN_MOTION":13.15546953,"ECCENTRICITY":0.00016686,"INCLINATION":87.9005,"RA_OF_ASC_NODE":292.5335,"ARG_OF_PERICENTER":65.955,"MEAN_ANOMALY":294.1755,"EPHEMERIS_TYPE":0,"CLASSIFICATION_TYPE":"U","NORAD_CAT_ID":56071,"ELEMENT_SET_NO":999,"REV_AT_EPOCH":13449,"BSTAR":1.3410768e-5,"MEAN_MOTION_DOT":1.8e-7,"MEAN_MOTION_DDOT":0},{"OBJECT_NAME":"ONEWEB-0630","OBJECT_ID":"2023-043AC","EPOCH":"2026-01-01T07:18:26.055072","MEAN_MOTION":13.15547435,"ECCENTRICITY":0.0001669,"INCLINATION":87.9003,"RA_OF_ASC_NODE":292.5055,"ARG_OF_PERICENTER":64.4031,"MEAN_ANOMALY":295.7272,"EPHEMERIS_TYPE":0,"CLASSIFICATION_TYPE":"U","NORAD_CAT_ID":56072,"ELEMENT_SET_NO":999,"REV_AT_EPOCH":13448,"BSTAR":-4.7844113e-5,"MEAN_MOTION_DOT":-5.0e-8,"MEAN_MOTION_DDOT":0},{"OBJECT_NAME":"ONEWEB-0632","OBJECT_ID":"2023-043AD","EPOCH":"2026-01-01T07:11:35.612736","MEAN_MOTION":13.15549065,"ECCENTRICITY":0.00018918,"INCLINATION":87.9005,"RA_OF_ASC_NODE":292.524,"ARG_OF_PERICENTER":74.27,"MEAN_ANOMALY":285.8639,"EPHEMERIS_TYPE":0,"CLASSIFICATION_TYPE":"U","NORAD_CAT_ID":56073,"ELEMENT_SET_NO":999,"REV_AT_EPOCH":13448,"BSTAR":-0.00032754595,"MEAN_MOTION_DOT":-1.1e-6,"MEAN_MOTION_DDOT":0},{"OBJECT_NAME":"ONEWEB-0633","OBJECT_ID":"2023-043AE","EPOCH":"2026-01-01T07:02:28.037184","MEAN_MOTION":13.15547705,"ECCENTRICITY":0.00015176,"INCLINATION":87.9006,"RA_OF_ASC_NODE":292.4885,"ARG_OF_PERICENTER":61.8593,"MEAN_ANOMALY":298.2691,"EPHEMERIS_TYPE":0,"CLASSIFICATION_TYPE":"U","NORAD_CAT_ID":56074,"ELEMENT_SET_NO":999,"REV_AT_EPOCH":13446,"BSTAR":-0.0002758425,"MEAN_MOTION_DOT":-9.1e-7,"MEAN_MOTION_DDOT":0},{"OBJECT_NAME":"ONEWEB-0634","OBJECT_ID":"2023-043AF","EPOCH":"2026-01-01T06:41:55.844448","MEAN_MOTION":13.15548118,"ECCENTRICITY":0.0001374,"INCLINATION":87.901,"RA_OF_ASC_NODE":292.5423,"ARG_OF_PERICENTER":79.8469,"MEAN_ANOMALY":280.2816,"EPHEMERIS_TYPE":0,"CLASSIFICATION_TYPE":"U","NORAD_CAT_ID":56075,"ELEMENT_SET_NO":999,"REV_AT_EPOCH":13445,"BSTAR":-0.00026159807,"MEAN_MOTION_DOT":-8.6e-7,"MEAN_MOTION_DDOT":0},{"OBJECT_NAME":"ONEWEB-0635","OBJECT_ID":"2023-043AG","EPOCH":"2026-01-01T06:35:05.310528","MEAN_MOTION":13.15548827,"ECCENTRICITY":0.00019669,"INCLINATION":87.9006,"RA_OF_ASC_NODE":292.4964,"ARG_OF_PERICENTER":75.9932,"MEAN_ANOMALY":284.1417,"EPHEMERIS_TYPE":0,"CLASSIFICATION_TYPE":"U","NORAD_CAT_ID":56076,"ELEMENT_SET_NO":999,"REV_AT_EPOCH":13448,"BSTAR":-0.00024688618,"MEAN_MOTION_DOT":-8.0e-7,"MEAN_MOTION_DDOT":0},{"OBJECT_NAME":"ONEWEB-0636","OBJECT_ID":"2023-043AH","EPOCH":"2026-01-01T06:23:40.897248","MEAN_MOTION":13.15548881,"ECCENTRICITY":0.00018738,"INCLINATION":87.9004,"RA_OF_ASC_NODE":292.5154,"ARG_OF_PERICENTER":77.9962,"MEAN_ANOMALY":282.1379,"EPHEMERIS_TYPE":0,"CLASSIFICATION_TYPE":"U","NORAD_CAT_ID":56077,"ELEMENT_SET_NO":999,"REV_AT_EPOCH":13446,"BSTAR":0.00011665989,"MEAN_MOTION_DOT":5.7e-7,"MEAN_MOTION_DDOT":0},{"OBJECT_NAME":"ONEWEB-0637","OBJECT_ID":"2023-043AJ","EPOCH":"2026-01-01T06:14:32.609760","MEAN_MOTION":13.15550251,"ECCENTRICITY":0.00017374,"INCLINATION":87.9007,"RA_OF_ASC_NODE":292.5337,"ARG_OF_PERICENTER":83.1421,"MEAN_ANOMALY":276.9907,"EPHEMERIS_TYPE":0,"CLASSIFICATION_TYPE":"U","NORAD_CAT_ID":56078,"ELEMENT_SET_NO":999,"REV_AT_EPOCH":13448,"BSTAR":0.00022584113,"MEAN_MOTION_DOT":9.8e-7,"MEAN_MOTION_DDOT":0},{"OBJECT_NAME":"ONEWEB-0647","OBJECT_ID":"2023-043AK","EPOCH":"2026-01-01T06:07:42.824064","MEAN_MOTION":13.15547335,"ECCENTRICITY":0.00018334,"INCLINATION":87.9004,"RA_OF_ASC_NODE":292.5479,"ARG_OF_PERICENTER":70.1176,"MEAN_ANOMALY":290.0152,"EPHEMERIS_TYPE":0,"CLASSIFICATION_TYPE":"U","NORAD_CAT_ID":56079,"ELEMENT_SET_NO":999,"REV_AT_EPOCH":13447,"BSTAR":0.00047672083,"MEAN_MOTION_DOT":1.92e-6,"MEAN_MOTION_DDOT":0},{"OBJECT_NAME":"ONEWEB-0651","OBJECT_ID":"2023-043AL","EPOCH":"2026-01-01T06:00:52.361856","MEAN_MOTION":13.1554735,"ECCENTRICITY":0.00018696,"INCLINATION":87.9007,"RA_OF_ASC_NODE":292.5419,"ARG_OF_PERICENTER":79.8288,"MEAN_ANOMALY":280.3053,"EPHEMERIS_TYPE":0,"CLASSIFICATION_TYPE":"U","NORAD_CAT_ID":56080,"ELEMENT_SET_NO":999,"REV_AT_EPOCH":13567,"BSTAR":0.000410349,"MEAN_MOTION_DOT":1.67e-6,"MEAN_MOTION_DDOT":0},{"OBJECT_NAME":"ONEWEB-0718","OBJECT_ID":"2023-043AM","EPOCH":"2026-01-01T05:54:00.348768","MEAN_MOTION":13.15550631,"ECCENTRICITY":0.00011194,"INCLINATION":87.9007,"RA_OF_ASC_NODE":292.5234,"ARG_OF_PERICENTER":82.9505,"MEAN_ANOMALY":277.1753,"EPHEMERIS_TYPE":0,"CLASSIFICATION_TYPE":"U","NORAD_CAT_ID":56081,"ELEMENT_SET_NO":999,"REV_AT_EPOCH":13448,"BSTAR":0.00033853427,"MEAN_MOTION_DOT":1.4e-6,"MEAN_MOTION_DDOT":0}]
